KUIPER-00102            
1 65140U 25171J   26062.46999668  .00006405  00000+0  86780-3 0  9991
2 65140  51.8987 180.5818 0000573  89.0574 271.0454 14.79963552 32037
KUIPER-00103            
1 65141U 25171K   26062.62001332  .00005948  00000+0  80767-3 0  9992
2 65141  51.8989 197.4104 0002193 125.2704 234.8464 14.79980418 31816
KUIPER-00104            
1 65142U 25171L   26062.70089186 -.00013592  00000+0 -17579-2 0  9991
2 65142  51.9020 184.5123 0000436  48.3188 311.7812 14.79922781 32004
KUIPER-00105            
1 65143U 25171M   26062.92887497 -.00047801  00000+0 -62876-2 0  9997
2 65143  51.9001 191.1237 0000891  97.5437 262.5627 14.79921334 31933
KUIPER-00106            
1 65144U 25171N   26062.70258086  .00009950  00000+0  87304-3 0  9995
2 65144  51.8945 182.1774 0007880  80.2746 279.9114 14.97135792 32044
KUIPER-00107            
1 65145U 25171P   26062.67810660  .00007432  00000+0  10019-2 0  9995
2 65145  51.8999 174.6755 0000285  38.9186 321.1797 14.79972275 32142
KUIPER-00108            
1 65146U 25171Q   26062.56324263  .00002653  00000+0  37672-3 0  9998
2 65146  51.9038 187.6962 0001579 159.4022 200.7004 14.79950027 31959
KUIPER-00109            
1 65147U 25171R   26062.73744960  .00001664  00000+0  24723-3 0  9992
2 65147  51.9022 181.8689 0000503 124.4893 235.6117 14.79937540 32047
KUIPER-00110            
1 65148U 25171S   26062.55621955  .00006745  00000+0  91354-3 0  9990
2 65148  51.9007 195.2705 0001927 171.9536 188.1458 14.79905078 31838
KUIPER-00111            
1 65149U 25171T   26062.38080282  .00005913  00000+0  80282-3 0  9998
2 65149  51.8977 200.9462 0001948 136.3959 223.7157 14.79993417 31741
KUIPER-00112            
1 65150U 25171U   26062.70377022  .00007297  00000+0  98416-3 0  9992
2 65150  51.9023 182.0746 0000304  96.4656 263.6341 14.79976551 32037
KUIPER-00114            
1 65151U 25171V   26062.37824151  .00005815  00000+0  79103-3 0  9992
2 65151  51.9005 203.5132 0001400 129.0123 231.0964 14.79940652 31702
KUIPER-00115            
1 65152U 25171W   26062.65631640  .00006350  00000+0  86097-3 0  9998
2 65152  51.8991 194.7678 0000723  92.7285 267.3760 14.79942726 31850
KUIPER-00116            
1 65153U 25171X   26062.68477598 -.00005046  00000+0 -63349-3 0  9990
2 65153  51.9001 199.6812 0001146 128.7443 231.3622 14.79924791 31786
KUIPER-00118            
1 65154U 25171Y   26062.68196917  .00006537  00000+0  88443-3 0  9990
2 65154  51.8990 202.1490 0000563  84.8692 275.2335 14.79993139 31752
KUIPER-00119            
1 65155U 25171Z   26062.56056028  .00015459  00000+0  20514-2 0  9993
2 65155  51.8995 190.2721 0001427 124.9071 235.2026 14.79948022 31900
KUIPER-00120            
1 65762U 25217A   26063.16670139 -.00025380  00000+0 -33076-2 0  9993
2 65762  51.8976  77.4926 0000428 117.1852  52.0078 14.79997231  5715
