[{"OBJECT_NAME":"KUIPER-00102","OBJECT_ID":"2025-171J","EPOCH":"2026-03-03T11:16:47.713152","MEAN_MOTION":14.79963552,"ECCENTRICITY":5.737e-5,"INCLINATION":51.8987,"RA_OF_ASC_NODE":180.5818,"ARG_OF_PERICENTER":89.0574,"MEAN_ANOMALY":271.0454,"EPHEMERIS_TYPE":0,"CLASSIFICATION_TYPE":"U","NORAD_CAT_ID":65140,"ELEMENT_SET_NO":999,"REV_AT_EPOCH":3203,"BSTAR":0.00086779967,"MEAN_MOTION_DOT":6.405e-5,"MEAN_MOTION_DDOT":0},{"OBJECT_NAME":"KUIPER-00103","OBJECT_ID":"2025-171K","EPOCH":"2026-03-03T14:52:49.150848","MEAN_MOTION":14.79980418,"ECCENTRICITY":0.0002193,"INCLINATION":51.8989,"RA_OF_ASC_NODE":197.4104,"ARG_OF_PERICENTER":125.2704,"MEAN_ANOMALY":234.8464,"EPHEMERIS_TYPE":0,"CLASSIFICATION_TYPE":"U","NORAD_CAT_ID":65141,"ELEMENT_SET_NO":999,"REV_AT_EPOCH":3181,"BSTAR":0.00080767,"MEAN_MOTION_DOT":5.948e-5,"MEAN_MOTION_DDOT":0},{"OBJECT_NAME":"KUIPER-00104","OBJECT_ID":"2025-171L","EPOCH":"2026-03-03T16:49:17.056704","MEAN_MOTION":14.79922781,"ECCENTRICITY":4.36e-5,"INCLINATION":51.902,"RA_OF_ASC_NODE":184.5123,"ARG_OF_PERICENTER":48.3188,"MEAN_ANOMALY":311.7812,"EPHEMERIS_TYPE":0,"CLASSIFICATION_TYPE":"U","NORAD_CAT_ID":65142,"ELEMENT_SET_NO":999,"REV_AT_EPOCH":3200,"BSTAR":-0.00175793,"MEAN_MOTION_DOT":-0.00013592,"MEAN_MOTION_DDOT":0},{"OBJECT_NAME":"KUIPER-00105","OBJECT_ID":"2025-171M","EPOCH":"2026-03-03T22:17:34.797408","MEAN_MOTION":14.79921334,"ECCENTRICITY":8.91e-5,"INCLINATION":51.9001,"RA_OF_ASC_NODE":191.1237,"ARG_OF_PERICENTER":97.5437,"MEAN_ANOMALY":262.5627,"EPHEMERIS_TYPE":0,"CLASSIFICATION_TYPE":"U","NORAD_CAT_ID":65143,"ELEMENT_SET_NO":999,"REV_AT_EPOCH":3193,"BSTAR":-0.0062876,"MEAN_MOTION_DOT":-0.00047801,"MEAN_MOTION_DDOT":0},{"OBJECT_NAME":"KUIPER-00106","OBJECT_ID":"2025-171N","EPOCH":"2026-03-03T16:51:42.986304","MEAN_MOTION":14.97135792,"ECCENTRICITY":0.000788,"INCLINATION":51.8945,"RA_OF_ASC_NODE":182.1774,"ARG_OF_PERICENTER":80.2746,"MEAN_ANOMALY":279.9114,"EPHEMERIS_TYPE":0,"CLASSIFICATION_TYPE":"U","NORAD_CAT_ID":65144,"ELEMENT_SET_NO":999,"REV_AT_EPOCH":3204,"BSTAR":0.0008730355,"MEAN_MOTION_DOT":9.95e-5,"MEAN_MOTION_DDOT":0},{"OBJECT_NAME":"KUIPER-00107","OBJECT_ID":"2025-171P","EPOCH":"2026-03-03T16:16:28.410240","MEAN_MOTION":14.79972275,"ECCENTRICITY":2.855e-5,"INCLINATION":51.8999,"RA_OF_ASC_NODE":174.6755,"ARG_OF_PERICENTER":38.9186,"MEAN_ANOMALY":321.1797,"EPHEMERIS_TYPE":0,"CLASSIFICATION_TYPE":"U","NORAD_CAT_ID":65145,"ELEMENT_SET_NO":999,"REV_AT_EPOCH":3214,"BSTAR":0.0010018503,"MEAN_MOTION_DOT":7.432e-5,"MEAN_MOTION_DDOT":0},{"OBJECT_NAME":"KUIPER-00108","OBJECT_ID":"2025-171Q","EPOCH":"2026-03-03T13:31:04.163232","MEAN_MOTION":14.79950027,"ECCENTRICITY":0.0001579,"INCLINATION":51.9038,"RA_OF_ASC_NODE":187.6962,"ARG_OF_PERICENTER":159.4022,"MEAN_ANOMALY":200.7004,"EPHEMERIS_TYPE":0,"CLASSIFICATION_TYPE":"U","NORAD_CAT_ID":65146,"ELEMENT_SET_NO":999,"REV_AT_EPOCH":3195,"BSTAR":0.00037672,"MEAN_MOTION_DOT":2.653e-5,"MEAN_MOTION_DDOT":0},{"OBJECT_NAME":"KUIPER-00109","OBJECT_ID":"2025-171R","EPOCH":"2026-03-03T17:41:55.645440","MEAN_MOTION":14.7993754,"ECCENTRICITY":5.034e-5,"INCLINATION":51.9022,"RA_OF_ASC_NODE":181.8689,"ARG_OF_PERICENTER":124.4893,"MEAN_ANOMALY":235.6117,"EPHEMERIS_TYPE":0,"CLASSIFICATION_TYPE":"U","NORAD_CAT_ID":65147,"ELEMENT_SET_NO":999,"REV_AT_EPOCH":3204,"BSTAR":0.00024723498,"MEAN_MOTION_DOT":1.664e-5,"MEAN_MOTION_DDOT":0},{"OBJECT_NAME":"KUIPER-00110","OBJECT_ID":"2025-171S","EPOCH":"2026-03-03T13:20:57.369120","MEAN_MOTION":14.79905078,"ECCENTRICITY":0.0001927,"INCLINATION":51.9007,"RA_OF_ASC_NODE":195.2705,"ARG_OF_PERICENTER":171.9536,"MEAN_ANOMALY":188.1458,"EPHEMERIS_TYPE":0,"CLASSIFICATION_TYPE":"U","NORAD_CAT_ID":65148,"ELEMENT_SET_NO":999,"REV_AT_EPOCH":3183,"BSTAR":0.00091354,"MEAN_MOTION_DOT":6.745e-5,"MEAN_MOTION_DDOT":0},{"OBJECT_NAME":"KUIPER-00111","OBJECT_ID":"2025-171T","EPOCH":"2026-03-03T09:08:21.363648","MEAN_MOTION":14.79993417,"ECCENTRICITY":0.00019488,"INCLINATION":51.8977,"RA_OF_ASC_NODE":200.9462,"ARG_OF_PERICENTER":136.3959,"MEAN_ANOMALY":223.7157,"EPHEMERIS_TYPE":0,"CLASSIFICATION_TYPE":"U","NORAD_CAT_ID":65149,"ELEMENT_SET_NO":999,"REV_AT_EPOCH":3174,"BSTAR":0.00080281757,"MEAN_MOTION_DOT":5.913e-5,"MEAN_MOTION_DDOT":0},{"OBJECT_NAME":"KUIPER-00112","OBJECT_ID":"2025-171U","EPOCH":"2026-03-03T16:53:25.747008","MEAN_MOTION":14.79976551,"ECCENTRICITY":3.046e-5,"INCLINATION":51.9023,"RA_OF_ASC_NODE":182.0746,"ARG_OF_PERICENTER":96.4656,"MEAN_ANOMALY":263.6341,"EPHEMERIS_TYPE":0,"CLASSIFICATION_TYPE":"U","NORAD_CAT_ID":65150,"ELEMENT_SET_NO":999,"REV_AT_EPOCH":3203,"BSTAR":0.00098415706,"MEAN_MOTION_DOT":7.297e-5,"MEAN_MOTION_DDOT":0},{"OBJECT_NAME":"KUIPER-00114","OBJECT_ID":"2025-171V","EPOCH":"2026-03-03T09:04:40.066464","MEAN_MOTION":14.79940652,"ECCENTRICITY":0.00014008,"INCLINATION":51.9005,"RA_OF_ASC_NODE":203.5132,"ARG_OF_PERICENTER":129.0123,"MEAN_ANOMALY":231.0964,"EPHEMERIS_TYPE":0,"CLASSIFICATION_TYPE":"U","NORAD_CAT_ID":65151,"ELEMENT_SET_NO":999,"REV_AT_EPOCH":3170,"BSTAR":0.00079103078,"MEAN_MOTION_DOT":5.815e-5,"MEAN_MOTION_DDOT":0},{"OBJECT_NAME":"KUIPER-00115","OBJECT_ID":"2025-171W","EPOCH":"2026-03-03T15:45:05.736960","MEAN_MOTION":14.79942726,"ECCENTRICITY":7.23e-5,"INCLINATION":51.8991,"RA_OF_ASC_NODE":194.7678,"ARG_OF_PERICENTER":92.7285,"MEAN_ANOMALY":267.376,"EPHEMERIS_TYPE":0,"CLASSIFICATION_TYPE":"U","NORAD_CAT_ID":65152,"ELEMENT_SET_NO":999,"REV_AT_EPOCH":3185,"BSTAR":0.00086096681,"MEAN_MOTION_DOT":6.35e-5,"MEAN_MOTION_DDOT":0},{"OBJECT_NAME":"KUIPER-00116","OBJECT_ID":"2025-171X","EPOCH":"2026-03-03T16:26:04.644672","MEAN_MOTION":14.79924791,"ECCENTRICITY":0.00011465,"INCLINATION":51.9001,"RA_OF_ASC_NODE":199.6812,"ARG_OF_PERICENTER":128.7443,"MEAN_ANOMALY":231.3622,"EPHEMERIS_TYPE":0,"CLASSIFICATION_TYPE":"U","NORAD_CAT_ID":65153,"ELEMENT_SET_NO":999,"REV_AT_EPOCH":3178,"BSTAR":-0.0006334895,"MEAN_MOTION_DOT":-5.046e-5,"MEAN_MOTION_DDOT":0},{"OBJECT_NAME":"KUIPER-00118","OBJECT_ID":"2025-171Y","EPOCH":"2026-03-03T16:22:02.136288","MEAN_MOTION":14.79993139,"ECCENTRICITY":5.633e-5,"INCLINATION":51.899,"RA_OF_ASC_NODE":202.149,"ARG_OF_PERICENTER":84.8692,"MEAN_ANOMALY":275.2335,"EPHEMERIS_TYPE":0,"CLASSIFICATION_TYPE":"U","NORAD_CAT_ID":65154,"ELEMENT_SET_NO":999,"REV_AT_EPOCH":3175,"BSTAR":0.00088443363,"MEAN_MOTION_DOT":6.537e-5,"MEAN_MOTION_DDOT":0},{"OBJECT_NAME":"KUIPER-00119","OBJECT_ID":"2025-171Z","EPOCH":"2026-03-03T13:27:12.408192","MEAN_MOTION":14.79948022,"ECCENTRICITY":0.0001427,"INCLINATION":51.8995,"RA_OF_ASC_NODE":190.2721,"ARG_OF_PERICENTER":124.9071,"MEAN_ANOMALY":235.2026,"EPHEMERIS_TYPE":0,"CLASSIFICATION_TYPE":"U","NORAD_CAT_ID":65155,"ELEMENT_SET_NO":999,"REV_AT_EPOCH":3190,"BSTAR":0.0020514,"MEAN_MOTION_DOT":0.00015459,"MEAN_MOTION_DDOT":0},{"OBJECT_NAME":"KUIPER-00120","OBJECT_ID":"2025-217A","EPOCH":"2026-03-04T04:00:03.000096","MEAN_MOTION":14.79997231,"ECCENTRICITY":4.28e-5,"INCLINATION":51.8976,"RA_OF_ASC_NODE":77.4926,"ARG_OF_PERICENTER":117.1852,"MEAN_ANOMALY":52.0078,"EPHEMERIS_TYPE":0,"CLASSIFICATION_TYPE":"U","NORAD_CAT_ID":65762,"ELEMENT_SET_NO":999,"REV_AT_EPOCH":571,"BSTAR":-0.0033076,"MEAN_MOTION_DOT":-0.0002538,"MEAN_MOTION_DDOT":0}]
